{
    "links": {
        "self": "http://www.neowsapp.com/rest/v1/neo/3508149?api_key=iIulBulltgU6a56xZRHN4H3l9WmuAYTsLGpBGhQ2"
    },
    "id": "3508149",
    "neo_reference_id": "3508149",
    "name": "(2010 DG1)",
    "designation": "2010 DG1",
    "nasa_jpl_url": "http://ssd.jpl.nasa.gov/sbdb.cgi?sstr=3508149",
    "absolute_magnitude_h": 24.5,
    "estimated_diameter": {
        "kilometers": {
            "estimated_diameter_min": 0.0334622374,
            "estimated_diameter_max": 0.0748238376
        },
        "meters": {
            "estimated_diameter_min": 33.4622374455,
            "estimated_diameter_max": 74.8238376074
        },
        "miles": {
            "estimated_diameter_min": 0.0207924639,
            "estimated_diameter_max": 0.0464933628
        },
        "feet": {
            "estimated_diameter_min": 109.7842471007,
            "estimated_diameter_max": 245.4850393757
        }
    },
    "is_potentially_hazardous_asteroid": false,
    "close_approach_data": [
        {
            "close_approach_date": "2010-02-05",
            "close_approach_date_full": "2010-Feb-05 03:10",
            "epoch_date_close_approach": 1265339400000,
            "relative_velocity": {
                "kilometers_per_second": "16.8326837516",
                "kilometers_per_hour": "60597.6615056635",
                "miles_per_hour": "37653.0302838941"
            },
            "miss_distance": {
                "astronomical": "0.0368332079",
                "lunar": "14.3281178731",
                "kilometers": "5510169.447107173",
                "miles": "3423860.5279100674"
            },
            "orbiting_body": "Earth"
        }
    ],
    "orbital_data": {
        "orbit_id": "9",
        "orbit_determination_date": "2017-04-06 08:58:17",
        "first_observation_date": "2010-02-17",
        "last_observation_date": "2010-02-25",
        "data_arc_in_days": 8,
        "observations_used": 35,
        "orbit_uncertainty": "9",
        "minimum_orbit_intersection": ".00196571",
        "jupiter_tisserand_invariant": "3.607",
        "epoch_osculation": "2455246.5",
        "eccentricity": ".6539439519970195",
        "semi_major_axis": "1.938963628199873",
        "inclination": "1.522788353075549",
        "ascending_node_longitude": "314.3785878374046",
        "orbital_period": "986.172574502524",
        "perihelion_distance": ".6709900903963685",
        "perihelion_argument": "105.3644569294126",
        "aphelion_distance": "3.206937166003377",
        "perihelion_time": "2455187.731083896379",
        "mean_anomaly": "21.4534558598693",
        "mean_motion": ".36504766945238",
        "equinox": "J2000",
        "orbit_class": {
            "orbit_class_type": "APO",
            "orbit_class_description": "Near-Earth asteroid orbits which cross the Earth’s orbit similar to that of 1862 Apollo",
            "orbit_class_range": "a (semi-major axis) > 1.0 AU; q (perihelion) < 1.017 AU"
        }
    },
    "is_sentry_object": false
}